[{"OBJECT_NAME":"STARLINK-3265","OBJECT_ID":"2021-125AA","EPOCH":"2026-03-09T19:26:59.229600","MEAN_MOTION":15.08837854,"ECCENTRICITY":0.00012903,"INCLINATION":53.2171,"RA_OF_ASC_NODE":248.5905,"ARG_OF_PERICENTER":92.569,"MEAN_ANOMALY":267.545,"EPHEMERIS_TYPE":0,"CLASSIFICATION_TYPE":"U","NORAD_CAT_ID":50180,"ELEMENT_SET_NO":999,"REV_AT_EPOCH":23666,"BSTAR":3.2751093e-5,"MEAN_MOTION_DOT":2.33e-6,"MEAN_MOTION_DDOT":0},{"OBJECT_NAME":"LEMUR-2-LLOYD","OBJECT_ID":"2024-149DP","EPOCH":"2026-03-09T11:02:25.245024","MEAN_MOTION":15.07168338,"ECCENTRICITY":0.00051866,"INCLINATION":97.678,"RA_OF_ASC_NODE":149.6779,"ARG_OF_PERICENTER":125.6096,"MEAN_ANOMALY":234.5616,"EPHEMERIS_TYPE":0,"CLASSIFICATION_TYPE":"U","NORAD_CAT_ID":60577,"ELEMENT_SET_NO":999,"REV_AT_EPOCH":8536,"BSTAR":0.00080142638,"MEAN_MOTION_DOT":0.00012007,"MEAN_MOTION_DDOT":0}]
