STARLINK-3265           
1 50180U 21125AA  26068.81040774  .00000233  00000+0  32751-4 0  9997
2 50180  53.2171 248.5905 0001290  92.5690 267.5450 15.08837854236662
LEMUR-2-LLOYD           
1 60577U 24149DP  26068.46001441  .00012007  00000+0  80143-3 0  9995
2 60577  97.6780 149.6779 0005186 125.6096 234.5616 15.07168338 85367
